{
  "links" : {
    "next" : "https://api.nasa.gov/neo/rest/v1/feed?start_date=2013-12-23&end_date=2013-12-23&detailed=true&api_key=t0TVs3DtDT2H8Oy2Zy8m2eVrNsAVKAexjcZXUckd",
    "prev" : "https://api.nasa.gov/neo/rest/v1/feed?start_date=2013-12-21&end_date=2013-12-21&detailed=true&api_key=t0TVs3DtDT2H8Oy2Zy8m2eVrNsAVKAexjcZXUckd",
    "self" : "https://api.nasa.gov/neo/rest/v1/feed?start_date=2013-12-22&end_date=2013-12-22&detailed=true&api_key=t0TVs3DtDT2H8Oy2Zy8m2eVrNsAVKAexjcZXUckd"
  },
  "element_count" : 8,
  "near_earth_objects" : {
    "2013-12-22" : [ {
      "links" : {
        "self" : "https://api.nasa.gov/neo/rest/v1/neo/2376707?api_key=t0TVs3DtDT2H8Oy2Zy8m2eVrNsAVKAexjcZXUckd"
      },
      "neo_reference_id" : "2376707",
      "name" : "376707 (1995 OO)",
      "nasa_jpl_url" : "http://ssd.jpl.nasa.gov/sbdb.cgi?sstr=2376707",
      "absolute_magnitude_h" : 17.0,
      "estimated_diameter" : {
        "kilometers" : {
          "estimated_diameter_min" : 1.0581688593,
          "estimated_diameter_max" : 2.3661375011
        },
        "meters" : {
          "estimated_diameter_min" : 1058.1688593312,
          "estimated_diameter_max" : 2366.137501138
        },
        "miles" : {
          "estimated_diameter_min" : 0.6575154423,
          "estimated_diameter_max" : 1.4702492252
        },
        "feet" : {
          "estimated_diameter_min" : 3471.6827204482,
          "estimated_diameter_max" : 7762.9185592335
        }
      },
      "is_potentially_hazardous_asteroid" : false,
      "close_approach_data" : [ {
        "close_approach_date" : "2013-12-22",
        "epoch_date_close_approach" : 1387699200000,
        "relative_velocity" : {
          "kilometers_per_second" : "35.6778667753",
          "kilometers_per_hour" : "128440.3203911408",
          "miles_per_hour" : "79807.8201897064"
        },
        "miss_distance" : {
          "astronomical" : "0.4768459727",
          "lunar" : "185.4930877686",
          "kilometers" : "71335144",
          "miles" : "44325604"
        },
        "orbiting_body" : "Earth"
      } ],
      "orbital_data" : {
        "orbit_id" : "46",
        "orbit_determination_date" : "2017-09-22 06:51:31",
        "orbit_uncertainty" : "0",
        "minimum_orbit_intersection" : ".290978",
        "jupiter_tisserand_invariant" : "3.154",
        "epoch_osculation" : "2458000.5",
        "eccentricity" : ".7776961869990756",
        "semi_major_axis" : "2.157415588648333",
        "inclination" : "23.53691022981303",
        "ascending_node_longitude" : "348.8520359703535",
        "orbital_period" : "1157.441754880716",
        "perihelion_distance" : ".4796017115841583",
        "perihelion_argument" : "211.999236816309",
        "aphelion_distance" : "3.835229465712508",
        "perihelion_time" : "2457842.850007346976",
        "mean_anomaly" : "49.03399857121749",
        "mean_motion" : ".3110307697834014",
        "equinox" : "J2000"
      }
    }, {
      "links" : {
        "self" : "https://api.nasa.gov/neo/rest/v1/neo/2382406?api_key=t0TVs3DtDT2H8Oy2Zy8m2eVrNsAVKAexjcZXUckd"
      },
      "neo_reference_id" : "2382406",
      "name" : "382406 (1996 AJ1)",
      "nasa_jpl_url" : "http://ssd.jpl.nasa.gov/sbdb.cgi?sstr=2382406",
      "absolute_magnitude_h" : 20.5,
      "estimated_diameter" : {
        "kilometers" : {
          "estimated_diameter_min" : 0.2111324448,
          "estimated_diameter_max" : 0.4721064988
        },
        "meters" : {
          "estimated_diameter_min" : 211.1324447897,
          "estimated_diameter_max" : 472.1064988055
        },
        "miles" : {
          "estimated_diameter_min" : 0.1311915784,
          "estimated_diameter_max" : 0.2933532873
        },
        "feet" : {
          "estimated_diameter_min" : 692.6917701639,
          "estimated_diameter_max" : 1548.9058855411
        }
      },
      "is_potentially_hazardous_asteroid" : true,
      "close_approach_data" : [ {
        "close_approach_date" : "2013-12-22",
        "epoch_date_close_approach" : 1387699200000,
        "relative_velocity" : {
          "kilometers_per_second" : "16.3371368516",
          "kilometers_per_hour" : "58813.6926656963",
          "miles_per_hour" : "36544.5414233045"
        },
        "miss_distance" : {
          "astronomical" : "0.4736754041",
          "lunar" : "184.2597351074",
          "kilometers" : "70860832",
          "miles" : "44030880"
        },
        "orbiting_body" : "Earth"
      } ],
      "orbital_data" : {
        "orbit_id" : "28",
        "orbit_determination_date" : "2017-04-06 09:22:13",
        "orbit_uncertainty" : "0",
        "minimum_orbit_intersection" : ".00471821",
        "jupiter_tisserand_invariant" : "4.598",
        "epoch_osculation" : "2458000.5",
        "eccentricity" : ".7813932218280256",
        "semi_major_axis" : "1.309761965614802",
        "inclination" : "2.536137197765501",
        "ascending_node_longitude" : "90.98654568088678",
        "orbital_period" : "547.5036123881862",
        "perihelion_distance" : ".2863228434752441",
        "perihelion_argument" : "238.2662183897257",
        "aphelion_distance" : "2.33320108775436",
        "perihelion_time" : "2458225.411735141342",
        "mean_anomaly" : "212.1138074364418",
        "mean_motion" : ".6575299082132009",
        "equinox" : "J2000"
      }
    }, {
      "links" : {
        "self" : "https://api.nasa.gov/neo/rest/v1/neo/3653913?api_key=t0TVs3DtDT2H8Oy2Zy8m2eVrNsAVKAexjcZXUckd"
      },
      "neo_reference_id" : "3653913",
      "name" : "(2013 WC44)",
      "nasa_jpl_url" : "http://ssd.jpl.nasa.gov/sbdb.cgi?sstr=3653913",
      "absolute_magnitude_h" : 22.2,
      "estimated_diameter" : {
        "kilometers" : {
          "estimated_diameter_min" : 0.096506147,
          "estimated_diameter_max" : 0.2157943048
        },
        "meters" : {
          "estimated_diameter_min" : 96.5061469579,
          "estimated_diameter_max" : 215.7943048444
        },
        "miles" : {
          "estimated_diameter_min" : 0.059966121,
          "estimated_diameter_max" : 0.134088323
        },
        "feet" : {
          "estimated_diameter_min" : 316.6212271853,
          "estimated_diameter_max" : 707.9865871058
        }
      },
      "is_potentially_hazardous_asteroid" : false,
      "close_approach_data" : [ {
        "close_approach_date" : "2013-12-22",
        "epoch_date_close_approach" : 1387699200000,
        "relative_velocity" : {
          "kilometers_per_second" : "5.1148963899",
          "kilometers_per_hour" : "18413.6270035041",
          "miles_per_hour" : "11441.5117344828"
        },
        "miss_distance" : {
          "astronomical" : "0.2118613249",
          "lunar" : "82.4140548706",
          "kilometers" : "31694004",
          "miles" : "19693740"
        },
        "orbiting_body" : "Earth"
      } ],
      "orbital_data" : {
        "orbit_id" : "19",
        "orbit_determination_date" : "2017-04-06 08:43:33",
        "orbit_uncertainty" : "5",
        "minimum_orbit_intersection" : ".204185",
        "jupiter_tisserand_invariant" : "3.215",
        "epoch_osculation" : "2458000.5",
        "eccentricity" : ".5381527847467404",
        "semi_major_axis" : "2.544168817649487",
        "inclination" : "7.017491125996878",
        "ascending_node_longitude" : "242.4265994684257",
        "orbital_period" : "1482.235856550453",
        "perihelion_distance" : "1.175017283565593",
        "perihelion_argument" : "213.8659497136286",
        "aphelion_distance" : "3.91332035173338",
        "perihelion_time" : "2458139.883964904141",
        "mean_anomaly" : "326.1469346165538",
        "mean_motion" : ".2428763266041972",
        "equinox" : "J2000"
      }
    } ]
  }
}